[Satellite]
VERSION=1.1
NAME=MAQSAT B
NICKNAME=MAQSAT B
TLE1=1 25024U 97066B   11058.56062794 -.00000214  00000-0 -83405-6 0  9631
TLE2=2 25024   7.6997 222.7964 6521762 124.3387 314.9331  3.08775002150420
